IRIDIUM 57              
1 25273U 98019B   24201.49525963  .00000763  00000+0  25982-3 0  9992
2 25273  86.3955 284.5887 0002229  94.0627 266.0824 14.35288571377269
IRIDIUM 63              
1 25286U 98021B   24200.67026342  .00000743  00000+0  25000-3 0  9994
2 25286  86.3977 221.8352 0002094  91.1430 269.0007 14.35835261375974
IRIDIUM 69              
1 25319U 98026A   24201.54938274  .00000932  00000+0  28943-3 0  9998
2 25319  86.3962 235.7543 0004165  66.1756 293.9880 14.40087084375417
IRIDIUM 71              
1 25320U 98026B   24201.54245636  .00000795  00000+0  24419-3 0  9994
2 25320  86.3962 230.5121 0004420  97.7480 262.4221 14.40393523375948
IRIDIUM 73              
1 25344U 98032C   24201.51535720  .00001257  00000+0  31544-3 0  9991
2 25344  86.4447 187.9266 0002828  80.1044 280.0480 14.50637853382613
IRIDIUM 82              
1 25467U 98051A   24201.46358256  .00026292  00000+0  12705-2 0  9992
2 25467  86.3755 270.4446 0126707 102.1876 259.3589 15.11585197373361
